[{"CCSDS_OMM_VERS":"2.0","COMMENT":"GENERATED VIA SPACE-TRACK.ORG API","CREATION_DATE":"2021-04-03T03:47:21","ORIGINATOR":"18 SPCS","OBJECT_NAME":"STARLINK-1024","OBJECT_ID":"2019-074S","CENTER_NAME":"EARTH","REF_FRAME":"TEME","TIME_SYSTEM":"UTC","MEAN_ELEMENT_THEORY":"SGP4","EPOCH":"2021-04-02T18:41:08.314944","MEAN_MOTION":"15.06637591","ECCENTRICITY":"0.00021480","INCLINATION":"53.0017","RA_OF_ASC_NODE":"15.0360","ARG_OF_PERICENTER":"41.6298","MEAN_ANOMALY":"318.4854","EPHEMERIS_TYPE":"0","CLASSIFICATION_TYPE":"U","NORAD_CAT_ID":"44729","ELEMENT_SET_NO":"999","REV_AT_EPOCH":"7688","BSTAR":"0.00025774000000","MEAN_MOTION_DOT":"0.00003584","MEAN_MOTION_DDOT":"0.0000000000000","SEMIMAJOR_AXIS":"6924.620","PERIOD":"95.577","APOAPSIS":"547.973","PERIAPSIS":"544.998","OBJECT_TYPE":"PAYLOAD","RCS_SIZE":"LARGE","COUNTRY_CODE":"US","LAUNCH_DATE":"2019-11-11","SITE":"AFETR","DECAY_DATE":null,"FILE":"3004959","GP_ID":"174753234","TLE_LINE0":"0 STARLINK-1024","TLE_LINE1":"1 44729U 19074S   21092.77856846  .00003584  00000-0  25774-3 0  9990","TLE_LINE2":"2 44729  53.0017  15.0360 0002148  41.6298 318.4854 15.06637591 76889"},{"CCSDS_OMM_VERS":"2.0","COMMENT":"GENERATED VIA SPACE-TRACK.ORG API","CREATION_DATE":"2021-04-02T22:36:12","ORIGINATOR":"18 SPCS","OBJECT_NAME":"STARLINK-1024","OBJECT_ID":"2019-074S","CENTER_NAME":"EARTH","REF_FRAME":"TEME","TIME_SYSTEM":"UTC","MEAN_ELEMENT_THEORY":"SGP4","EPOCH":"2021-04-02T18:41:08.314944","MEAN_MOTION":"15.06637591","ECCENTRICITY":"0.00021480","INCLINATION":"53.0017","RA_OF_ASC_NODE":"15.0360","ARG_OF_PERICENTER":"41.6298","MEAN_ANOMALY":"318.4854","EPHEMERIS_TYPE":"0","CLASSIFICATION_TYPE":"U","NORAD_CAT_ID":"44729","ELEMENT_SET_NO":"999","REV_AT_EPOCH":"7705","BSTAR":"0.00025774000000","MEAN_MOTION_DOT":"0.00003584","MEAN_MOTION_DDOT":"0.0000000000000","SEMIMAJOR_AXIS":"6924.620","PERIOD":"95.577","APOAPSIS":"547.973","PERIAPSIS":"544.998","OBJECT_TYPE":"PAYLOAD","RCS_SIZE":"LARGE","COUNTRY_CODE":"US","LAUNCH_DATE":"2019-11-11","SITE":"AFETR","DECAY_DATE":null,"FILE":"3004768","GP_ID":"174729674","TLE_LINE0":"0 STARLINK-1024","TLE_LINE1":"1 44729U 19074S   21092.77856846  .00003584  00000-0  25774-3 0  9990","TLE_LINE2":"2 44729  53.0017  15.0360 0002148  41.6298 318.4854 15.06637591 77059"},{"CCSDS_OMM_VERS":"2.0","COMMENT":"GENERATED VIA SPACE-TRACK.ORG API","CREATION_DATE":"2021-04-03T18:31:58","ORIGINATOR":"18 SPCS","OBJECT_NAME":"STARLINK-1024","OBJECT_ID":"2019-074S","CENTER_NAME":"EARTH","REF_FRAME":"TEME","TIME_SYSTEM":"UTC","MEAN_ELEMENT_THEORY":"SGP4","EPOCH":"2021-04-03T12:11:53.893824","MEAN_MOTION":"15.06643933","ECCENTRICITY":"0.00022040","INCLINATION":"53.0020","RA_OF_ASC_NODE":"11.7550","ARG_OF_PERICENTER":"43.4546","MEAN_ANOMALY":"316.6616","EPHEMERIS_TYPE":"0","CLASSIFICATION_TYPE":"U","NORAD_CAT_ID":"44729","ELEMENT_SET_NO":"999","REV_AT_EPOCH":"7699","BSTAR":"0.00026035000000","MEAN_MOTION_DOT":"0.00003623","MEAN_MOTION_DDOT":"0.0000000000000","SEMIMAJOR_AXIS":"6924.601","PERIOD":"95.577","APOAPSIS":"547.992","PERIAPSIS":"544.940","OBJECT_TYPE":"PAYLOAD","RCS_SIZE":"LARGE","COUNTRY_CODE":"US","LAUNCH_DATE":"2019-11-11","SITE":"AFETR","DECAY_DATE":null,"FILE":"3005861","GP_ID":"174797192","TLE_LINE0":"0 STARLINK-1024","TLE_LINE1":"1 44729U 19074S   21093.50826266  .00003623  00000-0  26035-3 0  9990","TLE_LINE2":"2 44729  53.0020  11.7550 0002204  43.4546 316.6616 15.06643933 76991"},{"CCSDS_OMM_VERS":"2.0","COMMENT":"GENERATED VIA SPACE-TRACK.ORG API","CREATION_DATE":"2021-04-04T02:16:35","ORIGINATOR":"18 SPCS","OBJECT_NAME":"STARLINK-1024","OBJECT_ID":"2019-074S","CENTER_NAME":"EARTH","REF_FRAME":"TEME","TIME_SYSTEM":"UTC","MEAN_ELEMENT_THEORY":"SGP4","EPOCH":"2021-04-03T18:33:59.544576","MEAN_MOTION":"15.06645278","ECCENTRICITY":"0.00022140","INCLINATION":"53.0019","RA_OF_ASC_NODE":"10.5618","ARG_OF_PERICENTER":"44.5900","MEAN_ANOMALY":"315.5266","EPHEMERIS_TYPE":"0","CLASSIFICATION_TYPE":"U","NORAD_CAT_ID":"44729","ELEMENT_SET_NO":"999","REV_AT_EPOCH":"7703","BSTAR":"0.00024827000000","MEAN_MOTION_DOT":"0.00003442","MEAN_MOTION_DDOT":"0.0000000000000","SEMIMAJOR_AXIS":"6924.597","PERIOD":"95.577","APOAPSIS":"547.995","PERIAPSIS":"544.929","OBJECT_TYPE":"PAYLOAD","RCS_SIZE":"LARGE","COUNTRY_CODE":"US","LAUNCH_DATE":"2019-11-11","SITE":"AFETR","DECAY_DATE":null,"FILE":"3006281","GP_ID":"174828495","TLE_LINE0":"0 STARLINK-1024","TLE_LINE1":"1 44729U 19074S   21093.77360584  .00003442  00000-0  24827-3 0  9991","TLE_LINE2":"2 44729  53.0019  10.5618 0002214  44.5900 315.5266 15.06645278 77037"},{"CCSDS_OMM_VERS":"2.0","COMMENT":"GENERATED VIA SPACE-TRACK.ORG API","CREATION_DATE":"2021-04-04T06:46:12","ORIGINATOR":"18 SPCS","OBJECT_NAME":"STARLINK-1024","OBJECT_ID":"2019-074S","CENTER_NAME":"EARTH","REF_FRAME":"TEME","TIME_SYSTEM":"UTC","MEAN_ELEMENT_THEORY":"SGP4","EPOCH":"2021-04-04T04:07:07.873824","MEAN_MOTION":"15.06648329","ECCENTRICITY":"0.00022800","INCLINATION":"53.0019","RA_OF_ASC_NODE":"8.7722","ARG_OF_PERICENTER":"45.5228","MEAN_ANOMALY":"314.5946","EPHEMERIS_TYPE":"0","CLASSIFICATION_TYPE":"U","NORAD_CAT_ID":"44729","ELEMENT_SET_NO":"999","REV_AT_EPOCH":"7726","BSTAR":"0.00023972000000","MEAN_MOTION_DOT":"0.00003314","MEAN_MOTION_DDOT":"0.0000000000000","SEMIMAJOR_AXIS":"6924.588","PERIOD":"95.576","APOAPSIS":"548.031","PERIAPSIS":"544.874","OBJECT_TYPE":"PAYLOAD","RCS_SIZE":"LARGE","COUNTRY_CODE":"US","LAUNCH_DATE":"2019-11-11","SITE":"AFETR","DECAY_DATE":null,"FILE":"3006400","GP_ID":"174834806","TLE_LINE0":"0 STARLINK-1024","TLE_LINE1":"1 44729U 19074S   21094.17161891  .00003314  00000-0  23972-3 0  9994","TLE_LINE2":"2 44729  53.0019   8.7722 0002280  45.5228 314.5946 15.06648329 77268"},{"CCSDS_OMM_VERS":"2.0","COMMENT":"GENERATED VIA SPACE-TRACK.ORG API","CREATION_DATE":"2021-04-05T04:34:18","ORIGINATOR":"18 SPCS","OBJECT_NAME":"STARLINK-1024","OBJECT_ID":"2019-074S","CENTER_NAME":"EARTH","REF_FRAME":"TEME","TIME_SYSTEM":"UTC","MEAN_ELEMENT_THEORY":"SGP4","EPOCH":"2021-04-04T21:37:53.061312","MEAN_MOTION":"15.06652702","ECCENTRICITY":"0.00023320","INCLINATION":"53.0019","RA_OF_ASC_NODE":"5.4911","ARG_OF_PERICENTER":"47.3984","MEAN_ANOMALY":"312.7201","EPHEMERIS_TYPE":"0","CLASSIFICATION_TYPE":"U","NORAD_CAT_ID":"44729","ELEMENT_SET_NO":"999","REV_AT_EPOCH":"7720","BSTAR":"0.00020710000000","MEAN_MOTION_DOT":"0.00002825","MEAN_MOTION_DDOT":"0.0000000000000","SEMIMAJOR_AXIS":"6924.574","PERIOD":"95.576","APOAPSIS":"548.054","PERIAPSIS":"544.824","OBJECT_TYPE":"PAYLOAD","RCS_SIZE":"LARGE","COUNTRY_CODE":"US","LAUNCH_DATE":"2019-11-11","SITE":"AFETR","DECAY_DATE":null,"FILE":"3007123","GP_ID":"174894079","TLE_LINE0":"0 STARLINK-1024","TLE_LINE1":"1 44729U 19074S   21094.90130858  .00002825  00000-0  20710-3 0  9997","TLE_LINE2":"2 44729  53.0019   5.4911 0002332  47.3984 312.7201 15.06652702 77207"},{"CCSDS_OMM_VERS":"2.0","COMMENT":"GENERATED VIA SPACE-TRACK.ORG API","CREATION_DATE":"2021-04-05T19:14:54","ORIGINATOR":"18 SPCS","OBJECT_NAME":"STARLINK-1024","OBJECT_ID":"2019-074S","CENTER_NAME":"EARTH","REF_FRAME":"TEME","TIME_SYSTEM":"UTC","MEAN_ELEMENT_THEORY":"SGP4","EPOCH":"2021-04-05T03:59:58.537536","MEAN_MOTION":"15.06654087","ECCENTRICITY":"0.00023590","INCLINATION":"53.0018","RA_OF_ASC_NODE":"4.2981","ARG_OF_PERICENTER":"48.2435","MEAN_ANOMALY":"311.8754","EPHEMERIS_TYPE":"0","CLASSIFICATION_TYPE":"U","NORAD_CAT_ID":"44729","ELEMENT_SET_NO":"999","REV_AT_EPOCH":"7724","BSTAR":"0.00020270000000","MEAN_MOTION_DOT":"0.00002759","MEAN_MOTION_DDOT":"0.0000000000000","SEMIMAJOR_AXIS":"6924.570","PERIOD":"95.576","APOAPSIS":"548.068","PERIAPSIS":"544.801","OBJECT_TYPE":"PAYLOAD","RCS_SIZE":"LARGE","COUNTRY_CODE":"US","LAUNCH_DATE":"2019-11-11","SITE":"AFETR","DECAY_DATE":null,"FILE":"3007804","GP_ID":"174928166","TLE_LINE0":"0 STARLINK-1024","TLE_LINE1":"1 44729U 19074S   21095.16664974  .00002759  00000-0  20270-3 0  9994","TLE_LINE2":"2 44729  53.0018   4.2981 0002359  48.2435 311.8754 15.06654087 77245"},{"CCSDS_OMM_VERS":"2.0","COMMENT":"GENERATED VIA SPACE-TRACK.ORG API","CREATION_DATE":"2021-04-06T04:23:24","ORIGINATOR":"18 SPCS","OBJECT_NAME":"STARLINK-1024","OBJECT_ID":"2019-074S","CENTER_NAME":"EARTH","REF_FRAME":"TEME","TIME_SYSTEM":"UTC","MEAN_ELEMENT_THEORY":"SGP4","EPOCH":"2021-04-05T18:19:40.795968","MEAN_MOTION":"15.06656499","ECCENTRICITY":"0.00023970","INCLINATION":"53.0018","RA_OF_ASC_NODE":"1.6136","ARG_OF_PERICENTER":"49.6405","MEAN_ANOMALY":"310.4793","EPHEMERIS_TYPE":"0","CLASSIFICATION_TYPE":"U","NORAD_CAT_ID":"44729","ELEMENT_SET_NO":"999","REV_AT_EPOCH":"7733","BSTAR":"0.00015478000000","MEAN_MOTION_DOT":"0.00002040","MEAN_MOTION_DDOT":"0.0000000000000","SEMIMAJOR_AXIS":"6924.563","PERIOD":"95.576","APOAPSIS":"548.087","PERIAPSIS":"544.768","OBJECT_TYPE":"PAYLOAD","RCS_SIZE":"LARGE","COUNTRY_CODE":"US","LAUNCH_DATE":"2019-11-11","SITE":"AFETR","DECAY_DATE":null,"FILE":"3008543","GP_ID":"174968652","TLE_LINE0":"0 STARLINK-1024","TLE_LINE1":"1 44729U 19074S   21095.76366662  .00002040  00000-0  15478-3 0  9990","TLE_LINE2":"2 44729  53.0018   1.6136 0002397  49.6405 310.4793 15.06656499 77339"}]